[
  {
    "OBJECT_NAME": "LEGION 3",
    "OBJECT_ID": "2024-146A",
    "EPOCH": "2025-05-03T21:11:48.252768",
    "MEAN_MOTION": 15.16024949,
    "ECCENTRICITY": 0.0025739,
    "INCLINATION": 45.0015,
    "RA_OF_ASC_NODE": 65.0595,
    "ARG_OF_PERICENTER": 30.4653,
    "MEAN_ANOMALY": 329.7715,
    "EPHEMERIS_TYPE": 0,
    "CLASSIFICATION_TYPE": "U",
    "NORAD_CAT_ID": 60452,
    "ELEMENT_SET_NO": 999,
    "REV_AT_EPOCH": 3991,
    "BSTAR": 0.00043894,
    "MEAN_MOTION_DOT": 8.389e-05,
    "MEAN_MOTION_DDOT": 0
  },
  {
    "OBJECT_NAME": "LEGION 4",
    "OBJECT_ID": "2024-146B",
    "EPOCH": "2025-05-04T03:34:56.948736",
    "MEAN_MOTION": 15.16232582,
    "ECCENTRICITY": 0.0005322,
    "INCLINATION": 45.0368,
    "RA_OF_ASC_NODE": 154.6385,
    "ARG_OF_PERICENTER": 55.685,
    "MEAN_ANOMALY": 304.4533,
    "EPHEMERIS_TYPE": 0,
    "CLASSIFICATION_TYPE": "U",
    "NORAD_CAT_ID": 60453,
    "ELEMENT_SET_NO": 999,
    "REV_AT_EPOCH": 3880,
    "BSTAR": 0.00035696,
    "MEAN_MOTION_DOT": 6.762e-05,
    "MEAN_MOTION_DDOT": 0
  },
  {
    "OBJECT_NAME": "SENTINEL-2C",
    "OBJECT_ID": "2024-157A",
    "EPOCH": "2025-05-04T03:38:36.709728",
    "MEAN_MOTION": 14.30822369,
    "ECCENTRICITY": 0.000118,
    "INCLINATION": 98.5629,
    "RA_OF_ASC_NODE": 199.8854,
    "ARG_OF_PERICENTER": 98.7208,
    "MEAN_ANOMALY": 261.4108,
    "EPHEMERIS_TYPE": 0,
    "CLASSIFICATION_TYPE": "U",
    "NORAD_CAT_ID": 60989,
    "ELEMENT_SET_NO": 999,
    "REV_AT_EPOCH": 3449,
    "BSTAR": 0.00010486,
    "MEAN_MOTION_DOT": 2.31e-06,
    "MEAN_MOTION_DDOT": 0
  },
  {
    "OBJECT_NAME": "BIOMASS",
    "OBJECT_ID": "2025-090A",
    "EPOCH": "2025-05-04T05:25:25.671648",
    "MEAN_MOTION": 14.68077906,
    "ECCENTRICITY": 0.0001438,
    "INCLINATION": 98.0728,
    "RA_OF_ASC_NODE": 312.3613,
    "ARG_OF_PERICENTER": 59.0592,
    "MEAN_ANOMALY": 301.0754,
    "EPHEMERIS_TYPE": 0,
    "CLASSIFICATION_TYPE": "U",
    "NORAD_CAT_ID": 63772,
    "ELEMENT_SET_NO": 999,
    "REV_AT_EPOCH": 70,
    "BSTAR": 0.00021124,
    "MEAN_MOTION_DOT": 1.164e-05,
    "MEAN_MOTION_DDOT": 0
  }
]