LEGION 3                
1 60452U 24146A   25123.88319737  .00008389  00000+0  43894-3 0  9991
2 60452  45.0015  65.0595 0025739  30.4653 329.7715 15.16024949 39918
LEGION 4                
1 60453U 24146B   25124.14927024  .00006762  00000+0  35696-3 0  9990
2 60453  45.0368 154.6385 0005322  55.6850 304.4533 15.16232582 38805
SENTINEL-2C             
1 60989U 24157A   25124.15181377  .00000231  00000+0  10486-3 0  9995
2 60989  98.5629 199.8854 0001180  98.7208 261.4108 14.30822369 34491
BIOMASS                 
1 63772U 25090A   25124.22599157  .00001164  00000+0  21124-3 0  9999
2 63772  98.0728 312.3613 0001438  59.0592 301.0754 14.68077906   701
